start=new Date('2022-07-02T00:00:00.000Z').valueOf();
sats=[{"MEAN_MOTION_DOT":"-0.00000496","APOAPSIS":"548.316","REF_FRAME":"TEME","CENTER_NAME":"EARTH","DECAY_DATE":null,"GP_ID":"207206466","PERIAPSIS":"546.169","LAUNCH_DATE":"2020-09-03","TLE_LINE2":"2 46375  53.0549 259.4224 0001550  58.6372 301.4768 15.06390628101880","COUNTRY_CODE":"US","INCLINATION":"53.0549","RA_OF_ASC_NODE":"259.4224","MEAN_MOTION_DDOT":"0.0000000000000","ARG_OF_PERICENTER":"58.6372","NORAD_CAT_ID":"46375","PERIOD":"95.593","EPHEMERIS_TYPE":"0","BSTAR":"-0.00001437500000","REV_AT_EPOCH":"10188","CLASSIFICATION_TYPE":"U","RCS_SIZE":"LARGE","SITE":"AFETR","OBJECT_NAME":"STARLINK-1724","OBJECT_TYPE":"PAYLOAD","MEAN_ANOMALY":"301.4768","ELEMENT_SET_NO":"999","SEMIMAJOR_AXIS":"6925.377","ECCENTRICITY":"0.00015500","OBJECT_ID":"2020-062BC","EPOCH":"2022-07-01T11:45:35.858304","TLE_LINE1":"1 46375U 20062BC  22182.48999836 -.00000496  00000-0 -14375-4 0  9991","TIME_SYSTEM":"UTC","MEAN_ELEMENT_THEORY":"SGP4","MEAN_MOTION":"15.06390628","FILE":"3506285"},{"OBJECT_ID":"2020-062BD","SEMIMAJOR_AXIS":"6925.350","ECCENTRICITY":"0.00012500","EPOCH":"2022-07-01T12:06:48.936384","ELEMENT_SET_NO":"999","MEAN_ANOMALY":"284.5893","OBJECT_TYPE":"PAYLOAD","FILE":"3506285","MEAN_MOTION":"15.06399505","MEAN_ELEMENT_THEORY":"SGP4","TLE_LINE1":"1 46376U 20062BD  22182.50473306  .00001296  00000-0  10587-3 0  9991","TIME_SYSTEM":"UTC","MEAN_MOTION_DDOT":"0.0000000000000","RA_OF_ASC_NODE":"259.3757","INCLINATION":"53.0546","LAUNCH_DATE":"2020-09-03","PERIAPSIS":"546.349","COUNTRY_CODE":"US","TLE_LINE2":"2 46376  53.0546 259.3757 0001250  75.5235 284.5893 15.06399505101884","DECAY_DATE":null,"CENTER_NAME":"EARTH","REF_FRAME":"TEME","APOAPSIS":"548.081","GP_ID":"207207718","MEAN_MOTION_DOT":"0.00001296","SITE":"AFETR","OBJECT_NAME":"STARLINK-1742","RCS_SIZE":"LARGE","CLASSIFICATION_TYPE":"U","EPHEMERIS_TYPE":"0","PERIOD":"95.592","NORAD_CAT_ID":"46376","BSTAR":"0.00010587000000","REV_AT_EPOCH":"10188","ARG_OF_PERICENTER":"75.5235"},{"SEMIMAJOR_AXIS":"6925.385","ECCENTRICITY":"0.00013060","OBJECT_ID":"2020-062BH","EPOCH":"2022-07-01T12:53:57.140160","MEAN_ANOMALY":"296.6966","ELEMENT_SET_NO":"999","OBJECT_TYPE":"PAYLOAD","FILE":"3506285","MEAN_MOTION":"15.06387993","MEAN_ELEMENT_THEORY":"SGP4","TLE_LINE1":"1 46380U 20062BH  22182.53746690  .00001494  00000-0  11920-3 0  9990","TIME_SYSTEM":"UTC","INCLINATION":"53.0563","RA_OF_ASC_NODE":"284.2318","MEAN_MOTION_DDOT":"0.0000000000000","PERIAPSIS":"546.346","LAUNCH_DATE":"2020-09-03","TLE_LINE2":"2 46380  53.0563 284.2318 0001306  63.4156 296.6966 15.06387993101544","COUNTRY_CODE":"US","APOAPSIS":"548.155","REF_FRAME":"TEME","DECAY_DATE":null,"CENTER_NAME":"EARTH","GP_ID":"207207969","MEAN_MOTION_DOT":"0.00001494","CLASSIFICATION_TYPE":"U","RCS_SIZE":"LARGE","SITE":"AFETR","OBJECT_NAME":"STARLINK-1758","PERIOD":"95.593","NORAD_CAT_ID":"46380","EPHEMERIS_TYPE":"0","BSTAR":"0.00011920000000","REV_AT_EPOCH":"10154","ARG_OF_PERICENTER":"63.4156"},{"TIME_SYSTEM":"UTC","TLE_LINE1":"1 46382U 20062BK  22182.51947618  .00001283  00000-0  10502-3 0  9994","MEAN_ELEMENT_THEORY":"SGP4","MEAN_MOTION":"15.06404638","FILE":"3506285","OBJECT_TYPE":"PAYLOAD","MEAN_ANOMALY":"309.1236","ELEMENT_SET_NO":"999","EPOCH":"2022-07-01T12:28:02.741952","ECCENTRICITY":"0.00013220","SEMIMAJOR_AXIS":"6925.334","OBJECT_ID":"2020-062BK","ARG_OF_PERICENTER":"50.9870","BSTAR":"0.00010502000000","REV_AT_EPOCH":"10189","NORAD_CAT_ID":"46382","PERIOD":"95.592","EPHEMERIS_TYPE":"0","CLASSIFICATION_TYPE":"U","OBJECT_NAME":"STARLINK-1769","SITE":"AFETR","RCS_SIZE":"LARGE","MEAN_MOTION_DOT":"0.00001283","GP_ID":"207206717","REF_FRAME":"TEME","APOAPSIS":"548.115","CENTER_NAME":"EARTH","DECAY_DATE":null,"COUNTRY_CODE":"US","TLE_LINE2":"2 46382  53.0545 259.3148 0001322  50.9870 309.1236 15.06404638101896","PERIAPSIS":"546.284","LAUNCH_DATE":"2020-09-03","INCLINATION":"53.0545","RA_OF_ASC_NODE":"259.3148","MEAN_MOTION_DDOT":"0.0000000000000"},{"MEAN_MOTION_DOT":"0.00000127","GP_ID":"207213464","APOAPSIS":"548.326","REF_FRAME":"TEME","CENTER_NAME":"EARTH","DECAY_DATE":null,"TLE_LINE2":"2 46383  53.0569 303.7785 0001558  65.6868 294.4284 15.06388957101451","COUNTRY_CODE":"US","PERIAPSIS":"546.168","LAUNCH_DATE":"2020-09-03","INCLINATION":"53.0569","RA_OF_ASC_NODE":"303.7785","MEAN_MOTION_DDOT":"0.0000000000000","ARG_OF_PERICENTER":"65.6868","BSTAR":"0.00002742500000","REV_AT_EPOCH":"10145","NORAD_CAT_ID":"46383","PERIOD":"95.593","EPHEMERIS_TYPE":"0","CLASSIFICATION_TYPE":"U","OBJECT_NAME":"STARLINK-1770","SITE":"AFETR","RCS_SIZE":"LARGE","OBJECT_TYPE":"PAYLOAD","MEAN_ANOMALY":"294.4284","ELEMENT_SET_NO":"999","EPOCH":"2022-07-01T15:19:53.677344","SEMIMAJOR_AXIS":"6925.382","ECCENTRICITY":"0.00015580","OBJECT_ID":"2020-062BL","TIME_SYSTEM":"UTC","TLE_LINE1":"1 46383U 20062BL  22182.63881571  .00000127  00000-0  27425-4 0  9992","MEAN_ELEMENT_THEORY":"SGP4","MEAN_MOTION":"15.06388957","FILE":"3506331"},{"TLE_LINE1":"1 46384U 20062BM  22182.57614848 -.00000120  00000-0  10830-4 0  9993","TIME_SYSTEM":"UTC","MEAN_ELEMENT_THEORY":"SGP4","MEAN_MOTION":"15.06397502","FILE":"3506285","OBJECT_TYPE":"PAYLOAD","ELEMENT_SET_NO":"999","MEAN_ANOMALY":"275.6483","OBJECT_ID":"2020-062BM","ECCENTRICITY":"0.00013330","SEMIMAJOR_AXIS":"6925.356","EPOCH":"2022-07-01T13:49:39.228672","ARG_OF_PERICENTER":"84.4658","EPHEMERIS_TYPE":"0","NORAD_CAT_ID":"46384","PERIOD":"95.592","BSTAR":"0.00001083000000","REV_AT_EPOCH":"10126","SITE":"AFETR","OBJECT_NAME":"STARLINK-1771","RCS_SIZE":"LARGE","CLASSIFICATION_TYPE":"U","MEAN_MOTION_DOT":"-0.00000120","DECAY_DATE":null,"CENTER_NAME":"EARTH","APOAPSIS":"548.144","REF_FRAME":"TEME","GP_ID":"207207218","LAUNCH_DATE":"2020-09-03","PERIAPSIS":"546.298","TLE_LINE2":"2 46384  53.0547 304.0593 0001333  84.4658 275.6483 15.06397502101263","COUNTRY_CODE":"US","MEAN_MOTION_DDOT":"0.0000000000000","RA_OF_ASC_NODE":"304.0593","INCLINATION":"53.0547"},{"INCLINATION":"53.0553","RA_OF_ASC_NODE":"104.3412","MEAN_MOTION_DDOT":"0.0000000000000","PERIAPSIS":"546.183","LAUNCH_DATE":"2020-10-06","COUNTRY_CODE":"US","TLE_LINE2":"2 46532  53.0553 104.3412 0001526  74.1733 285.9424 15.06391471 96452","REF_FRAME":"TEME","APOAPSIS":"548.297","DECAY_DATE":null,"CENTER_NAME":"EARTH","GP_ID":"207207983","MEAN_MOTION_DOT":"0.00001006","CLASSIFICATION_TYPE":"U","SITE":"AFETR","OBJECT_NAME":"STARLINK-1644","RCS_SIZE":"LARGE","NORAD_CAT_ID":"46532","PERIOD":"95.593","EPHEMERIS_TYPE":"0","BSTAR":"0.00008642600000","REV_AT_EPOCH":"9645","ARG_OF_PERICENTER":"74.1733","ECCENTRICITY":"0.00015260","SEMIMAJOR_AXIS":"6925.375","OBJECT_ID":"2020-070A","EPOCH":"2022-07-01T12:14:07.429344","MEAN_ANOMALY":"285.9424","ELEMENT_SET_NO":"999","OBJECT_TYPE":"PAYLOAD","FILE":"3506285","MEAN_MOTION":"15.06391471","MEAN_ELEMENT_THEORY":"SGP4","TLE_LINE1":"1 46532U 20070A   22182.50980821  .00001006  00000-0  86426-4 0  9994","TIME_SYSTEM":"UTC"},{"BSTAR":"0.00009784000000","REV_AT_EPOCH":"9651","NORAD_CAT_ID":"46533","PERIOD":"95.592","EPHEMERIS_TYPE":"0","CLASSIFICATION_TYPE":"U","OBJECT_NAME":"STARLINK-1648","SITE":"AFETR","RCS_SIZE":"LARGE","ARG_OF_PERICENTER":"61.2154","TLE_LINE2":"2 46533  53.0549 103.0918 0001888  61.2154 298.9024 15.06401805 96510","COUNTRY_CODE":"US","PERIAPSIS":"545.901","LAUNCH_DATE":"2020-10-06","INCLINATION":"53.0549","RA_OF_ASC_NODE":"103.0918","MEAN_MOTION_DDOT":"0.0000000000000","MEAN_MOTION_DOT":"0.00001176","GP_ID":"207214364","REF_FRAME":"TEME","APOAPSIS":"548.516","CENTER_NAME":"EARTH","DECAY_DATE":null,"MEAN_MOTION":"15.06401805","FILE":"3506368","TIME_SYSTEM":"UTC","TLE_LINE1":"1 46533U 20070B   22182.78624788  .00001176  00000-0  97840-4 0  9992","MEAN_ELEMENT_THEORY":"SGP4","MEAN_ANOMALY":"298.9024","ELEMENT_SET_NO":"999","EPOCH":"2022-07-01T18:52:11.816832","ECCENTRICITY":"0.00018880","SEMIMAJOR_AXIS":"6925.343","OBJECT_ID":"2020-070B","OBJECT_TYPE":"PAYLOAD"},{"COUNTRY_CODE":"US","TLE_LINE2":"2 46534  53.0540 104.3833 0001980  62.4594 297.6596 15.06394315 96456","LAUNCH_DATE":"2020-10-06","PERIAPSIS":"545.860","MEAN_MOTION_DDOT":"0.0000000000000","RA_OF_ASC_NODE":"104.3833","INCLINATION":"53.0540","MEAN_MOTION_DOT":"0.00000305","GP_ID":"207206981","DECAY_DATE":null,"CENTER_NAME":"EARTH","APOAPSIS":"548.602","REF_FRAME":"TEME","BSTAR":"0.00003937500000","REV_AT_EPOCH":"9645","EPHEMERIS_TYPE":"0","NORAD_CAT_ID":"46534","PERIOD":"95.593","SITE":"AFETR","RCS_SIZE":"LARGE","OBJECT_NAME":"STARLINK-1659","CLASSIFICATION_TYPE":"U","ARG_OF_PERICENTER":"62.4594","ELEMENT_SET_NO":"999","MEAN_ANOMALY":"297.6596","EPOCH":"2022-07-01T12:03:30.714048","OBJECT_ID":"2020-070C","ECCENTRICITY":"0.00019800","SEMIMAJOR_AXIS":"6925.366","OBJECT_TYPE":"PAYLOAD","MEAN_MOTION":"15.06394315","FILE":"3506285","TIME_SYSTEM":"UTC","TLE_LINE1":"1 46534U 20070C   22182.50243882  .00000305  00000-0  39375-4 0  9997","MEAN_ELEMENT_THEORY":"SGP4"},{"ARG_OF_PERICENTER":"62.3255","OBJECT_NAME":"STARLINK-1663","SITE":"AFETR","RCS_SIZE":"LARGE","CLASSIFICATION_TYPE":"U","EPHEMERIS_TYPE":"0","NORAD_CAT_ID":"46535","PERIOD":"95.593","REV_AT_EPOCH":"9644","BSTAR":"0.00002178000000","DECAY_DATE":null,"CENTER_NAME":"EARTH","REF_FRAME":"TEME","APOAPSIS":"548.558","GP_ID":"207207232","MEAN_MOTION_DOT":"0.00000043","RA_OF_ASC_NODE":"104.4327","MEAN_MOTION_DDOT":"0.0000000000000","INCLINATION":"53.0553","LAUNCH_DATE":"2020-10-06","PERIAPSIS":"545.915","COUNTRY_CODE":"US","TLE_LINE2":"2 46535  53.0553 104.4327 0001908  62.3255 297.7928 15.06392442 96441","MEAN_ELEMENT_THEORY":"SGP4","TLE_LINE1":"1 46535U 20070D   22182.49138041  .00000043  00000-0  21780-4 0  9996","TIME_SYSTEM":"UTC","FILE":"3506285","MEAN_MOTION":"15.06392442","OBJECT_TYPE":"PAYLOAD","OBJECT_ID":"2020-070D","SEMIMAJOR_AXIS":"6925.372","ECCENTRICITY":"0.00019080","EPOCH":"2022-07-01T11:47:35.267424","ELEMENT_SET_NO":"999","MEAN_ANOMALY":"297.7928"}];
